{
  "type": "FeatureCollection",
  "features": [
    {
      "type": "Feature",
      "properties": {
        "norad_id": 67026,
        "name": "STARLINK-36176",
        "group": "last-30-days",
        "lat": -23.690353242440874,
        "lon": 132.24638391040386,
        "alt_km": 294.48243784228544,
        "timestamp": "2025-12-19T20:42:58.815948+00:00",
        "meta_object_name": "STARLINK-36176",
        "meta_object_id": "2025-293Z",
        "meta_epoch": "2025-12-19T06:00:02.000160",
        "meta_mean_motion": 15.95631479,
        "meta_eccentricity": 0.00039561,
        "meta_inclination": 69.9935,
        "meta_ra_of_asc_node": 304.8349,
        "meta_arg_of_pericenter": 271.0817,
        "meta_mean_anomaly": 14.6765,
        "meta_ephemeris_type": 0,
        "meta_classification_type": "U",
        "meta_norad_cat_id": 67026,
        "meta_element_set_no": 999,
        "meta_rev_at_epoch": 130,
        "meta_bstar": -0.0029541061,
        "meta_mean_motion_dot": -0.01185699,
        "meta_mean_motion_ddot": 0.00042954137,
        "tle_line1": "1 67026U 25293Z   25353.25002315 -.01185699  42954-3 -29541-2 0  9999",
        "tle_line2": "2 67026  69.9935 304.8349 0003956 271.0817  14.6765 15.95631479  1307"
      },
      "geometry": {
        "type": "Point",
        "coordinates": [
          132.24638391040386,
          -23.690353242440874
        ]
      }
    },
    {
      "type": "Feature",
      "properties": {
        "norad_id": 67027,
        "name": "STARLINK-36171",
        "group": "last-30-days",
        "lat": -21.79818649354096,
        "lon": 131.42856342725432,
        "alt_km": 294.5886961093811,
        "timestamp": "2025-12-19T20:42:58.815960+00:00",
        "meta_object_name": "STARLINK-36171",
        "meta_object_id": "2025-293AA",
        "meta_epoch": "2025-12-19T06:00:02.000160",
        "meta_mean_motion": 15.95574299,
        "meta_eccentricity": 0.00039463,
        "meta_inclination": 69.9935,
        "meta_ra_of_asc_node": 304.8373,
        "meta_arg_of_pericenter": 271.5598,
        "meta_mean_anomaly": 12.2833,
        "meta_ephemeris_type": 0,
        "meta_classification_type": "U",
        "meta_norad_cat_id": 67027,
        "meta_element_set_no": 999,
        "meta_rev_at_epoch": 130,
        "meta_bstar": -0.0029581185,
        "meta_mean_motion_dot": -0.01183678,
        "meta_mean_motion_ddot": 0.0004279368,
        "tle_line1": "1 67027U 25293AA  25353.25002315 -.01183678  42794-3 -29581-2 0  9991",
        "tle_line2": "2 67027  69.9935 304.8373 0003946 271.5598  12.2833 15.95574299  1301"
      },
      "geometry": {
        "type": "Point",
        "coordinates": [
          131.42856342725432,
          -21.79818649354096
        ]
      }
    },
    {
      "type": "Feature",
      "properties": {
        "norad_id": 67028,
        "name": "STARLINK-36132",
        "group": "last-30-days",
        "lat": -28.21066855718509,
        "lon": 134.31248086772644,
        "alt_km": 294.2443657212407,
        "timestamp": "2025-12-19T20:42:58.815972+00:00",
        "meta_object_name": "STARLINK-36132",
        "meta_object_id": "2025-293AB",
        "meta_epoch": "2025-12-19T06:00:02.000160",
        "meta_mean_motion": 15.95771544,
        "meta_eccentricity": 0.0003959,
        "meta_inclination": 69.9937,
        "meta_ra_of_asc_node": 304.8294,
        "meta_arg_of_pericenter": 270.6835,
        "meta_mean_anomaly": 19.6688,
        "meta_ephemeris_type": 0,
        "meta_classification_type": "U",
        "meta_norad_cat_id": 67028,
        "meta_element_set_no": 999,
        "meta_rev_at_epoch": 130,
        "meta_bstar": -0.0029546132,
        "meta_mean_motion_dot": -0.01194794,
        "meta_mean_motion_ddot": 0.00043627514,
        "tle_line1": "1 67028U 25293AB  25353.25002315 -.01194794  43628-3 -29546-2 0  9991",
        "tle_line2": "2 67028  69.9937 304.8294 0003959 270.6835  19.6688 15.95771544  1305"
      },
      "geometry": {
        "type": "Point",
        "coordinates": [
          134.31248086772644,
          -28.21066855718509
        ]
      }
    },
    {
      "type": "Feature",
      "properties": {
        "norad_id": 67029,
        "name": "STARLINK-36190",
        "group": "last-30-days",
        "lat": -25.695273676784492,
        "lon": 133.1416731631779,
        "alt_km": 294.3360018523199,
        "timestamp": "2025-12-19T20:42:58.815983+00:00",
        "meta_object_name": "STARLINK-36190",
        "meta_object_id": "2025-293AC",
        "meta_epoch": "2025-12-19T06:00:02.000160",
        "meta_mean_motion": 15.95693557,
        "meta_eccentricity": 0.00039615,
        "meta_inclination": 69.9939,
        "meta_ra_of_asc_node": 304.8327,
        "meta_arg_of_pericenter": 269.8675,
        "meta_mean_anomaly": 17.9238,
        "meta_ephemeris_type": 0,
        "meta_classification_type": "U",
        "meta_norad_cat_id": 67029,
        "meta_element_set_no": 999,
        "meta_rev_at_epoch": 130,
        "meta_bstar": -0.0029538321,
        "meta_mean_motion_dot": -0.01189522,
        "meta_mean_motion_ddot": 0.00043237923,
        "tle_line1": "1 67029U 25293AC  25353.25002315 -.01189522  43238-3 -29538-2 0  9993",
        "tle_line2": "2 67029  69.9939 304.8327 0003961 269.8675  17.9238 15.95693557  1309"
      },
      "geometry": {
        "type": "Point",
        "coordinates": [
          133.1416731631779,
          -25.695273676784492
        ]
      }
    },
    {
      "type": "Feature",
      "properties": {
        "norad_id": 67030,
        "name": "STARLINK-36138",
        "group": "last-30-days",
        "lat": 7.298043361427041,
        "lon": -49.20951956210029,
        "alt_km": 302.1676379344726,
        "timestamp": "2025-12-19T20:42:58.815993+00:00",
        "meta_object_name": "STARLINK-36138",
        "meta_object_id": "2025-294A",
        "meta_epoch": "2025-12-19T06:00:02.000160",
        "meta_mean_motion": 15.91170661,
        "meta_eccentricity": 0.00016252,
        "meta_inclination": 42.9996,
        "meta_ra_of_asc_node": 142.4962,
        "meta_arg_of_pericenter": 255.8458,
        "meta_mean_anomaly": 358.4318,
        "meta_ephemeris_type": 0,
        "meta_classification_type": "U",
        "meta_norad_cat_id": 67030,
        "meta_element_set_no": 999,
        "meta_rev_at_epoch": 130,
        "meta_bstar": -0.0039766342,
        "meta_mean_motion_dot": -0.0130826,
        "meta_mean_motion_ddot": 0.00048994299,
        "tle_line1": "1 67030U 25294A   25353.25002315 -.01308260  48994-3 -39766-2 0  9996",
        "tle_line2": "2 67030  42.9996 142.4962 0001625 255.8458 358.4318 15.91170661  1309"
      },
      "geometry": {
        "type": "Point",
        "coordinates": [
          -49.20951956210029,
          7.298043361427041
        ]
      }
    },
    {
      "type": "Feature",
      "properties": {
        "norad_id": 67031,
        "name": "STARLINK-36150",
        "group": "last-30-days",
        "lat": 6.295453250441806,
        "lon": -48.11259277501621,
        "alt_km": 302.321956095303,
        "timestamp": "2025-12-19T20:42:58.816005+00:00",
        "meta_object_name": "STARLINK-36150",
        "meta_object_id": "2025-294B",
        "meta_epoch": "2025-12-19T06:00:02.000160",
        "meta_mean_motion": 15.9121918,
        "meta_eccentricity": 0.00016825,
        "meta_inclination": 42.9998,
        "meta_ra_of_asc_node": 142.493,
        "meta_arg_of_pericenter": 261.9326,
        "meta_mean_anomaly": 353.7246,
        "meta_ephemeris_type": 0,
        "meta_classification_type": "U",
        "meta_norad_cat_id": 67031,
        "meta_element_set_no": 999,
        "meta_rev_at_epoch": 135,
        "meta_bstar": -0.003976098,
        "meta_mean_motion_dot": -0.01311338,
        "meta_mean_motion_ddot": 0.00049228311,
        "tle_line1": "1 67031U 25294B   25353.25002315 -.01311338  49228-3 -39761-2 0  9993",
        "tle_line2": "2 67031  42.9998 142.4930 0001682 261.9326 353.7246 15.91219180  1355"
      },
      "geometry": {
        "type": "Point",
        "coordinates": [
          -48.11259277501621,
          6.295453250441806
        ]
      }
    },
    {
      "type": "Feature",
      "properties": {
        "norad_id": 67032,
        "name": "STARLINK-36131",
        "group": "last-30-days",
        "lat": 3.6962497638334937,
        "lon": -45.298940173841146,
        "alt_km": 302.00739672604504,
        "timestamp": "2025-12-19T20:42:58.816016+00:00",
        "meta_object_name": "STARLINK-36131",
        "meta_object_id": "2025-294C",
        "meta_epoch": "2025-12-19T06:00:02.000160",
        "meta_mean_motion": 15.91346302,
        "meta_eccentricity": 0.0001613,
        "meta_inclination": 42.9997,
        "meta_ra_of_asc_node": 142.4834,
        "meta_arg_of_pericenter": 252.6967,
        "meta_mean_anomaly": 6.5177,
        "meta_ephemeris_type": 0,
        "meta_classification_type": "U",
        "meta_norad_cat_id": 67032,
        "meta_element_set_no": 999,
        "meta_rev_at_epoch": 130,
        "meta_bstar": -0.0039755598,
        "meta_mean_motion_dot": -0.0131969,
        "meta_mean_motion_ddot": 0.00049864537,
        "tle_line1": "1 67032U 25294C   25353.25002315 -.01319690  49865-3 -39756-2 0  9994",
        "tle_line2": "2 67032  42.9997 142.4834 0001613 252.6967   6.5177 15.91346302  1308"
      },
      "geometry": {
        "type": "Point",
        "coordinates": [
          -45.298940173841146,
          3.6962497638334937
        ]
      }
    }
  ]
}